FLOCK 4G-24             
1 62637U 25009AE  26068.72509072  .00010513  00000+0  38996-3 0  9991
2 62637  97.4061 151.5140 0001802 280.2808  79.8228 15.27784978 63732
STARLINK-33817          
1 63583U 25076Q   26068.09636431  .00036914  00000+0  13443-2 0  9998
2 63583  43.0025 324.7015 0001370 281.3058  78.7640 15.27578190 51734
